NORAD_CAT_ID,OBJECT_NAME,OBJECT_TYPE,EPOCH,MEAN_MOTION,ECCENTRICITY,INCLINATION,RA_OF_ASC_NODE,ARG_OF_PERICENTER,MEAN_ANOMALY,BSTAR,MEAN_MOTION_DOT,MEAN_MOTION_DDOT,TLE_LINE0,TLE_LINE1,TLE_LINE2,SEMIMAJOR_AXIS,PERIOD,APOGEE,PERIGEE,DECAYED
56482.0,STARLINK-6220,PAYLOAD,2024-05-09 20:18:08,14.98325597,0.0002961,70.0006,10.8232,268.4206,91.6614,8.0358e-05,8.66e-06,0.0,0 STARLINK-6220,1 56482U 23064AL  24130.84593367  .00000866  00000-0  80358-4 0  9993,2 56482  70.0006  10.8232 0002961 268.4206  91.6614 14.98325597 55912,6950.207,96.107,574.129,570.014,0.0
56482.0,STARLINK-6220,PAYLOAD,2024-05-09 21:54:16,14.98326208,0.000295,70.0007,10.6548,268.733,91.3492,8.6423e-05,9.38e-06,0.0,0 STARLINK-6220,1 56482U 23064AL  24130.91269330  .00000938  00000-0  86423-4 0  9990,2 56482  70.0007  10.6548 0002950 268.7330  91.3492 14.98326208 55562,6950.205,96.107,574.12,570.019,0.0
56482.0,STARLINK-6220,PAYLOAD,2024-05-10 09:07:13,14.98328846,0.0002833,70.001,9.4751,274.0102,86.0734,4.9981e-05,5.03e-06,0.0,0 STARLINK-6220,1 56482U 23064AL  24131.38001322  .00000503  00000-0  49981-4 0  9993,2 56482  70.0010   9.4751 0002833 274.0102  86.0734 14.98328846 55633,6950.196,96.107,574.03,570.092,0.0
56482.0,STARLINK-6220,PAYLOAD,2024-05-10 20:20:09,14.98329065,0.0002789,70.0011,8.2984,271.1796,88.9044,-5.0689e-05,-6.98e-06,0.0,0 STARLINK-6220,1 56482U 23064AL  24131.84733589 -.00000698  00000-0 -50689-4 0  9995,2 56482  70.0011   8.2984 0002789 271.1796  88.9044 14.98329065 56063,6950.196,96.107,573.999,570.122,0.0
56482.0,STARLINK-6220,PAYLOAD,2024-05-10 21:56:17,14.98327034,0.0002797,70.0011,8.1298,271.5247,88.5592,-2.7231e-05,-4.18e-06,0.0,0 STARLINK-6220,1 56482U 23064AL  24131.91409653 -.00000418  00000-0 -27231-4 0  9992,2 56482  70.0011   8.1298 0002797 271.5247  88.5592 14.98327034 55713,6950.202,96.107,574.011,570.123,0.0
56482.0,STARLINK-6220,PAYLOAD,2024-05-11 01:08:33,14.98336205,0.0002533,70.0012,7.7944,252.2974,107.7908,2.1977e-05,1.69e-06,0.0,0 STARLINK-6220,1 56482U 23064AL  24132.04760930  .00000169  00000-0  21977-4 0  9997,2 56482  70.0012   7.7944 0002533 252.2974 107.7908 14.98336205 56095,6950.174,96.107,573.799,570.278,0.0
56482.0,STARLINK-6220,PAYLOAD,2024-05-11 09:09:11,14.98363913,0.0002776,70.002,6.9522,273.586,86.4982,0.0002256,2.602e-05,0.0,0 STARLINK-6220,1 56482U 23064AL  24132.38138302  .00002602  00000-0  22560-3 0  9998,2 56482  70.0020   6.9522 0002776 273.5860  86.4982 14.98363913 56143,6950.088,96.105,573.882,570.024,0.0
56482.0,STARLINK-6220,PAYLOAD,2024-05-11 18:46:02,14.98315247,0.0002189,70.0007,5.9414,254.1849,105.9069,-0.00025481,-3.131e-05,0.0,0 STARLINK-6220,1 56482U 23064AL  24132.78197169 -.00003131  00000-0 -25481-3 0  9993,2 56482  70.0007   5.9414 0002189 254.1849 105.9069 14.98315247 56204,6950.239,96.108,573.625,570.582,0.0
56482.0,STARLINK-6220,PAYLOAD,2024-05-11 21:58:17,14.9833094,0.0002573,70.0008,5.6049,274.6589,85.4276,-8.4637e-05,-1.103e-05,0.0,0 STARLINK-6220,1 56482U 23064AL  24132.91547846 -.00001103  00000-0 -84637-4 0  9995,2 56482  70.0008   5.6049 0002573 274.6589  85.4276 14.98330940 55861,6950.19,96.107,573.843,570.267,0.0
56482.0,STARLINK-6220,PAYLOAD,2024-05-12 01:10:36,14.98292357,0.0003011,70.001,5.269,259.8759,100.2061,-0.00042161,-5.115e-05,0.0,0 STARLINK-6220,1 56482U 23064AL  24133.04902977 -.00005115  00000-0 -42161-3 0  9992,2 56482  70.0010   5.2690 0003011 259.8759 100.2061 14.98292357 56244,6950.309,96.109,574.267,570.082,0.0
56482.0,STARLINK-6220,PAYLOAD,2024-05-12 09:11:17,14.98287885,0.0002367,70.0014,4.4285,280.2001,79.8891,-0.00049715,-6.013e-05,0.0,0 STARLINK-6220,1 56482U 23064AL  24133.38284380 -.00006013  00000-0 -49715-3 0  9990,2 56482  70.0014   4.4285 0002367 280.2001  79.8891 14.98287885 55937,6950.323,96.11,573.833,570.543,0.0
56482.0,STARLINK-6220,PAYLOAD,2024-05-12 20:24:15,14.98276629,0.0002861,70.0003,3.2486,272.5461,87.5371,-0.00049922,-6.036e-05,0.0,0 STARLINK-6220,1 56482U 23064AL  24133.85018077 -.00006036  00000-0 -49922-3 0  9995,2 56482  70.0003   3.2486 0002861 272.5461  87.5371 14.98276629 56369,6950.358,96.11,574.211,570.234,0.0
56482.0,STARLINK-6220,PAYLOAD,2024-05-12 22:00:23,14.98278381,0.0002699,70.0003,3.0797,264.2176,95.8675,-0.00052992,-6.402e-05,0.0,0 STARLINK-6220,1 56482U 23064AL  24133.91694210 -.00006402  00000-0 -52992-3 0  9999,2 56482  70.0003   3.0797 0002699 264.2176  95.8675 14.98278381 56010,6950.353,96.11,574.093,570.342,0.0
56482.0,STARLINK-6220,PAYLOAD,2024-05-13 01:12:38,14.98297865,0.000247,70.0023,2.7447,253.1882,106.9006,-0.00023475,-2.89e-05,0.0,0 STARLINK-6220,1 56482U 23064AL  24134.05044568 -.00002890  00000-0 -23475-3 0  9991,2 56482  70.0023   2.7447 0002470 253.1882 106.9006 14.98297865 56399,6950.292,96.109,573.874,570.441,0.0
56482.0,STARLINK-6220,PAYLOAD,2024-05-13 22:02:20,14.98356605,0.0003519,69.9981,0.5566,264.5767,95.4991,-0.0005432,-6.573e-05,0.0,0 STARLINK-6220,1 56482U 23064AL  24134.91829577 -.00006573  00000-0 -54320-3 0  9992,2 56482  69.9981   0.5566 0003519 264.5767  95.4991 14.98356605 56168,6950.111,96.105,574.421,569.53,0.0
56482.0,STARLINK-6220,PAYLOAD,2024-05-14 01:14:36,14.98358966,0.0002899,69.9986,0.2156,274.0675,86.0152,-0.0004673,-5.668e-05,0.0,0 STARLINK-6220,1 56482U 23064AL  24135.05181220 -.00005668  00000-0 -46730-3 0  9994,2 56482  69.9986   0.2156 0002899 274.0675  86.0152 14.98358966 56548,6950.103,96.105,573.983,569.953,0.0
56482.0,STARLINK-6220,PAYLOAD,2024-05-14 07:39:09,14.98313778,0.0002628,69.999,359.5445,275.6953,84.3906,0.00050434,5.927e-05,0.0,0 STARLINK-6220,1 56482U 23064AL  24135.31886030  .00005927  00000-0  50434-3 0  9996,2 56482  69.9990 359.5445 0002628 275.6953  84.3906 14.98313778 56584,6950.243,96.108,573.935,570.282,0.0
56482.0,STARLINK-6220,PAYLOAD,2024-05-14 14:03:41,14.98317829,0.0002464,69.9988,358.8705,274.7633,85.3245,0.0005128,6.029e-05,0.0,0 STARLINK-6220,1 56482U 23064AL  24135.58590198  .00006029  00000-0  51280-3 0  9996,2 56482  69.9988 358.8705 0002464 274.7633  85.3245 14.98317829 56268,6950.231,96.108,573.808,570.383,0.0
56482.0,STARLINK-6220,PAYLOAD,2024-05-14 22:04:22,14.98320605,0.0002871,69.9988,358.0284,275.8554,84.2278,0.00065171,7.69e-05,0.0,0 STARLINK-6220,1 56482U 23064AL  24135.91969977  .00007690  00000-0  65171-3 0  9997,2 56482  69.9988 358.0284 0002871 275.8554  84.2278 14.98320605 56314,6950.222,96.108,574.082,570.092,0.0
56482.0,STARLINK-6220,PAYLOAD,2024-05-15 01:16:36,14.98351412,0.0002508,70.0,357.6929,273.4025,86.6847,0.00030218,3.516e-05,0.0,0 STARLINK-6220,1 56482U 23064AL  24136.05320591  .00003516  00000-0  30218-3 0  9993,2 56482  70.0000 357.6929 0002508 273.4025  86.6847 14.98351412 56696,6950.127,96.106,573.735,570.249,0.0
56482.0,STARLINK-6220,PAYLOAD,2024-05-15 07:41:10,14.98325398,0.0003229,70.0008,357.0177,275.5153,84.5638,0.00029541,3.433e-05,0.0,0 STARLINK-6220,1 56482U 23064AL  24136.32026225  .00003433  00000-0  29541-3 0  9995,2 56482  70.0008 357.0177 0003229 275.5153  84.5638 14.98325398 56733,6950.207,96.107,574.316,569.828,0.0
56482.0,STARLINK-6220,PAYLOAD,2024-05-15 14:05:42,14.98344172,0.0002685,70.0003,356.3461,274.8404,85.2448,-5.5971e-05,-7.61e-06,0.0,0 STARLINK-6220,1 56482U 23064AL  24136.58730130 -.00000761  00000-0 -55971-4 0  9990,2 56482  70.0003 356.3461 0002685 274.8404  85.2448 14.98344172 56415,6950.149,96.106,573.88,570.148,0.0
56482.0,STARLINK-6220,PAYLOAD,2024-05-15 22:06:22,14.98342598,0.0002754,70.0012,355.5049,271.9875,88.0969,-6.9868e-05,-9.27e-06,0.0,0 STARLINK-6220,1 56482U 23064AL  24136.92109896 -.00000927  00000-0 -69868-4 0  9991,2 56482  70.0012 355.5049 0002754 271.9875  88.0969 14.98342598 56469,6950.154,96.106,573.933,570.105,0.0
56482.0,STARLINK-6220,PAYLOAD,2024-05-15 23:42:30,14.98341722,0.0002706,70.0007,355.3369,272.5386,87.5463,-2.6021e-05,-4.04e-06,0.0,0 STARLINK-6220,1 56482U 23064AL  24136.98785754 -.00000404  00000-0 -26021-4 0  9994,2 56482  70.0007 355.3369 0002706 272.5386  87.5463 14.98341722 56839,6950.157,96.106,573.902,570.141,0.0
56482.0,STARLINK-6220,PAYLOAD,2024-05-16 14:07:42,14.98346914,0.0002561,70.0011,353.8224,270.5131,89.5734,-0.00010352,-1.328e-05,0.0,0 STARLINK-6220,1 56482U 23064AL  24137.58869099 -.00001328  00000-0 -10352-3 0  9991,2 56482  70.0011 353.8224 0002561 270.5131  89.5734 14.98346914 56563,6950.141,96.106,573.786,570.226,0.0
56482.0,STARLINK-6220,PAYLOAD,2024-05-16 20:32:14,14.98365474,0.000244,70.0013,353.1485,261.4373,98.6509,-0.00036903,-4.497e-05,0.0,0 STARLINK-6220,1 56482U 23064AL  24137.85572228 -.00004497  00000-0 -36903-3 0  9996,2 56482  70.0013 353.1485 0002440 261.4373  98.6509 14.98365474 56608,6950.083,96.105,573.644,570.252,0.0
56482.0,STARLINK-6220,PAYLOAD,2024-05-16 23:44:30,14.98348439,0.0002667,70.0007,352.812,267.2123,92.8731,-0.00011302,-1.442e-05,0.0,0 STARLINK-6220,1 56482U 23064AL  24137.98924530 -.00001442  00000-0 -11302-3 0  9990,2 56482  70.0007 352.8120 0002667 267.2123  92.8731 14.98348439 56987,6950.136,96.106,573.854,570.147,0.0
56482.0,STARLINK-6220,PAYLOAD,2024-05-17 22:10:25,14.98321081,0.0002514,70.0014,350.4561,269.1686,90.9185,-0.00012606,-1.596e-05,0.0,0 STARLINK-6220,1 56482U 23064AL  24138.92390188 -.00001596  00000-0 -12606-3 0  9999,2 56482  70.0014 350.4561 0002514 269.1686  90.9185 14.98321081 56766,6950.22,96.108,573.833,570.338,0.0
56482.0,STARLINK-6220,PAYLOAD,2024-05-17 23:46:33,14.98320391,0.0002603,70.0011,350.2876,271.2595,88.8266,-0.00013541,-1.708e-05,0.0,0 STARLINK-6220,1 56482U 23064AL  24138.99066280 -.00001708  00000-0 -13541-3 0  9993,2 56482  70.0011 350.2876 0002603 271.2595  88.8266 14.98320391 57133,6950.223,96.108,573.897,570.278,0.0
56482.0,STARLINK-6220,PAYLOAD,2024-05-18 07:47:12,14.98331763,0.0003083,70.0006,349.4431,265.2026,94.8781,3.8092e-06,-4.8e-07,0.0,0 STARLINK-6220,1 56482U 23064AL  24139.32445078 -.00000048  00000-0  38092-5 0  9992,2 56482  70.0006 349.4431 0003083 265.2026  94.8781 14.98331763 57188,6950.187,96.107,574.195,569.91,0.0
